DMSP 5D-3 F16 (USA 172) 
1 28054U 03048A   25289.12256110  .00000222  00000+0  13987-3 0  9994
2 28054  99.0105 306.1085 0008159 115.2544 330.9007 14.14393316134985
METEOSAT-9 (MSG-2)      
1 28912U 05049B   25288.99401197  .00000117  00000+0  00000+0 0  9992
2 28912   8.8035  56.5066 0002771 194.1490 177.6972  1.00275611  4568
DMSP 5D-3 F17 (USA 191) 
1 29522U 06050A   25289.13715659  .00000250  00000+0  15163-3 0  9999
2 29522  98.7418 295.7177 0010747  38.1649 322.0284 14.14882072977907
FENGYUN 3A              
1 32958U 08026A   25288.81569712  .00000182  00000+0  10666-3 0  9999
2 32958  98.6592 229.5918 0009757 109.1368 251.0866 14.19486473900734
GOES 14                 
1 35491U 09033A   25289.15600293 -.00000079  00000+0  00000+0 0  9994
2 35491   1.0464  86.0825 0004039 124.3229 122.2368  1.00271288  4149
DMSP 5D-3 F18 (USA 210) 
1 35951U 09057A   25289.08625075  .00000383  00000+0  22171-3 0  9992
2 35951  98.8762 265.7954 0010172 221.2750 138.7655 14.14722164825072
EWS-G2 (GOES 15)        
1 36411U 10008A   25289.13978595  .00000024  00000+0  00000+0 0  9991
2 36411   0.6632  85.5938 0005955 149.6053 261.4695  1.00274228 57195
COMS 1                  
1 36744U 10032A   25288.77892060 -.00000355  00000+0  00000+0 0  9996
2 36744   4.1981  78.5890 0000775 139.9074 214.6302  1.00270841 48630
FENGYUN 3B              
1 37214U 10059A   25289.18250495  .00000136  00000+0  93809-4 0  9994
2 37214  99.0000 328.7312 0022568 155.8790 291.3482 14.14766142772923
SUOMI NPP               
1 37849U 11061A   25289.17734767  .00000145  00000+0  89942-4 0  9993
2 37849  98.7672 227.0635 0001035   6.2434 353.8755 14.19530386723823
METEOSAT-10 (MSG-3)     
1 38552U 12035B   25289.12773920 -.00000013  00000+0  00000+0 0  9994
2 38552   4.0906  61.8353 0000351 110.7325 258.9567  1.00264210 48413
METOP-B                 
1 38771U 12049A   25289.14087484  .00000195  00000+0  10919-3 0  9991
2 38771  98.6891 340.0501 0001870 358.1050   2.0119 14.21376746678599
INSAT-3D                
1 39216U 13038B   25288.93923838 -.00000352  00000+0  00000+0 0  9995
2 39216   1.2916  85.7002 0001982 147.9793 258.6241  1.00266529 44630
FENGYUN 3C              
1 39260U 13052A   25289.21344719  .00000223  00000+0  13479-3 0  9991
2 39260  98.4697 269.7184 0014942  10.3685 349.7795 14.15668856624045
METEOR-M 2              
1 40069U 14037A   25289.16551411  .00000293  00000+0  15323-3 0  9994
2 40069  98.4834 268.9747 0006432  35.3850 324.7754 14.21351961584652
HIMAWARI-8              
1 40267U 14060A   25288.87016475 -.00000290  00000+0  00000+0 0  9993
2 40267   0.0183 213.4156 0000940  20.8254 244.3197  1.00270944 40314
FENGYUN 2G              
1 40367U 14090A   25289.13901209 -.00000310  00000+0  00000+0 0  9998
2 40367   5.0201  75.7686 0003969 181.7037 277.0025  1.00266245 39554
METEOSAT-11 (MSG-4)     
1 40732U 15034A   25289.12955921  .00000052  00000+0  00000+0 0  9994
2 40732   2.5878  72.1323 0000912  76.3458 292.8119  1.00262633  4774
ELEKTRO-L 2             
1 41105U 15074A   25289.19613422 -.00000125  00000+0  00000+0 0  9999
2 41105   6.0775  73.5139 0003086 182.7642 184.8167  1.00272638 36062
INSAT-3DR               
1 41752U 16054A   25289.07128247 -.00000090  00000+0  00000+0 0  9990
2 41752   0.1306  86.5296 0013233 178.1833 219.7815  1.00271376 33376
HIMAWARI-9              
1 41836U 16064A   25287.94240139 -.00000289  00000+0  00000+0 0  9993
2 41836   0.0342  78.2965 0001121 128.7960 296.6706  1.00272968 32756
GOES 16                 
1 41866U 16071A   25289.15600293 -.00000105  00000+0  00000+0 0  9997
2 41866   0.0811  70.2555 0002785 161.6076 104.5428  1.00271938 32651
FENGYUN 4A              
1 41882U 16077A   25288.47824431 -.00000370  00000+0  00000+0 0  9991
2 41882   1.6979  82.8894 0005863 161.1568  76.1919  1.00269965 32473
CYGFM05                 
1 41884U 16078A   25289.07947861  .00022510  00000+0  46931-3 0  9990
2 41884  34.9599  62.9317 0009761   6.0084 354.0752 15.44563917490830
CYGFM04                 
1 41885U 16078B   25288.73803845  .00024732  00000+0  47594-3 0  9990
2 41885  34.9359  41.4003 0008671  31.7641 328.3602 15.46888073490947
CYGFM02                 
1 41886U 16078C   25288.72721232  .00026264  00000+0  48025-3 0  9991
2 41886  34.9446  40.6110 0010177  28.6877 331.4403 15.48327116491061
CYGFM01                 
1 41887U 16078D   25288.77072774  .00022402  00000+0  45577-3 0  9996
2 41887  34.9432  67.7055 0009441 353.3699   6.6895 15.45281850490726
CYGFM08                 
1 41888U 16078E   25288.73954574  .00023268  00000+0  45635-3 0  9996
2 41888  34.9465  51.5269 0010925  17.3554 342.7539 15.46324170490944
CYGFM07                 
1 41890U 16078G   25289.02028657  .00026263  00000+0  50600-3 0  9992
2 41890  34.9487  38.9779 0008898  39.4575 320.6793 15.46843405491002
CYGFM03                 
1 41891U 16078H   25288.72396841  .00023691  00000+0  45821-3 0  9993
2 41891  34.9437  42.8020 0008183  22.4686 337.6392 15.46753221490933
FENGYUN 3D              
1 43010U 17072A   25289.15755683  .00000213  00000+0  12263-3 0  9993
2 43010  98.9797 254.6307 0002240  49.4232 310.7138 14.19657255410360
NOAA 20 (JPSS-1)        
1 43013U 17073A   25289.12115581  .00000134  00000+0  84345-4 0  9994
2 43013  98.7499 226.0765 0000190 165.8576 194.2605 14.19502704409840
GOES 17                 
1 43226U 18022A   25289.10997247 -.00000196  00000+0  00000+0 0  9990
2 43226   0.3069  90.5171 0003040 162.2869  82.1820  1.00271253 27978
FENGYUN 2H              
1 43491U 18050A   25286.57447850 -.00000136  00000+0  00000+0 0  9997
2 43491   2.3927  81.9759 0003253 144.5076  81.5900  1.00266799 26961
METOP-C                 
1 43689U 18087A   25289.17375507  .00000173  00000+0  99006-4 0  9993
2 43689  98.7014 347.8008 0001912 128.9624 231.1723 14.21480052360168
GEO-KOMPSAT-2A          
1 43823U 18100A   25289.07891954 -.00000357  00000+0  00000+0 0  9993
2 43823   0.0267  47.4071 0001169  87.7519  46.3763  1.00271007 25187
METEOR-M2 2             
1 44387U 19038A   25289.20144616  .00000284  00000+0  14308-3 0  9999
2 44387  98.8905 268.2430 0001746  40.0603 320.0704 14.24254758326563
ARKTIKA-M 1             
1 47719U 21016A   25273.30456647 -.00000067  00000+0  00000+0 0  9994
2 47719  63.1648  93.9278 7163271 268.8764  16.0765  2.00626972 33571
FENGYUN 3E              
1 49008U 21062A   25289.24256192  .00000078  00000+0  57308-4 0  9990
2 49008  98.7480 290.4412 0002683  78.0782 282.0695 14.19868392221965
GOES 18                 
1 51850U 22021A   25289.17405817  .00000000  00000+0  00000+0 0  9993
2 51850   0.0266  93.5164 0000669 175.2358  41.8466  1.00270052  4140
NOAA 21 (JPSS-2)        
1 54234U 22150A   25289.15720934  .00000153  00000+0  93423-4 0  9998
2 54234  98.7362 226.2096 0002092 132.6689 227.4664 14.19572747151926
METEOSAT-12 (MTG-I1)    
1 54743U 22170C   25289.11572590 -.00000020  00000+0  00000+0 0  9992
2 54743   0.6981  30.0834 0001379 145.9442 250.1513  1.00273715 10538
TIANMU-1 03             
1 55973U 23039A   25289.17736142  .00019407  00000+0  51090-3 0  9991
2 55973  97.5108  90.3284 0002747 254.5580 105.5361 15.38586059143207
TIANMU-1 04             
1 55974U 23039B   25289.16850943  .00019252  00000+0  50206-3 0  9993
2 55974  97.5038  89.5363 0003542 250.2608 109.8255 15.38875824143206
TIANMU-1 05             
1 55975U 23039C   25289.14952994  .00019568  00000+0  51571-3 0  9997
2 55975  97.5086  90.0044 0002504 285.4149  74.6820 15.38550992143180
TIANMU-1 06             
1 55976U 23039D   25289.17282406  .00019427  00000+0  50556-3 0  9991
2 55976  97.5097  90.4474 0002851 276.5957  83.4964 15.38942091143202
FENGYUN 3G              
1 56232U 23055A   25289.14374384  .00041884  00000+0  63338-3 0  9993
2 56232  49.9938 164.4559 0009545 262.9800  97.0082 15.54178081142076
METEOR-M2 3             
1 57166U 23091A   25289.21595616  .00000023  00000+0  28795-4 0  9990
2 57166  98.6465 343.7341 0004549 146.9717 213.1747 14.24015658119795
TIANMU-1 07             
1 57399U 23101A   25289.14300199  .00009737  00000+0  37133-3 0  9998
2 57399  97.2970 340.2841 0002396 285.7149  74.3826 15.26879204124367
TIANMU-1 08             
1 57400U 23101B   25289.17495318  .00009718  00000+0  37065-3 0  9995
2 57400  97.2959 340.1235 0004415 290.0334  70.0430 15.26869934124365
TIANMU-1 09             
1 57401U 23101C   25289.16209613  .00010103  00000+0  38536-3 0  9990
2 57401  97.2916 339.6565 0003644 290.1221  69.9625 15.26860122124360
TIANMU-1 10             
1 57402U 23101D   25289.19593552  .00008498  00000+0  32472-3 0  9999
2 57402  97.2996 340.4786 0005445 288.4429  71.6218 15.26846735124367
FENGYUN 3F              
1 57490U 23111A   25289.22993281  .00000121  00000+0  77528-4 0  9991
2 57490  98.7150 358.4329 0001476  89.1830 270.9515 14.19871184114243
ARKTIKA-M 2             
1 58584U 23198A   25273.05302128  .00000143  00000+0  00000+0 0  9999
2 58584  63.2269 182.9022 6863775 268.4071  18.7501  2.00603125 13100
TIANMU-1 11             
1 58645U 23205A   25289.16787470  .00007977  00000+0  33560-3 0  9995
2 58645  97.3674 309.8247 0010818 137.5844 222.6231 15.23601005100326
TIANMU-1 12             
1 58646U 23205B   25289.19102609  .00008676  00000+0  36609-3 0  9998
2 58646  97.3662 309.6711 0009393 122.7194 237.4950 15.23486780100310
TIANMU-1 13             
1 58647U 23205C   25289.15923478  .00008560  00000+0  36119-3 0  9998
2 58647  97.3690 309.8185 0009878 106.8636 253.3685 15.23488104100304
TIANMU-1 14             
1 58648U 23205D   25289.14210400  .00008848  00000+0  37323-3 0  9999
2 58648  97.3621 309.2038 0010683 110.8027 249.4355 15.23477615100300
TIANMU-1 19             
1 58660U 23208A   25289.21282714  .00012517  00000+0  48400-3 0  9997
2 58660  97.4360  40.4405 0006633 100.4581 259.7405 15.26342872100047
TIANMU-1 20             
1 58661U 23208B   25289.24433788  .00012880  00000+0  47995-3 0  9991
2 58661  97.4297  40.8631 0009030 109.2118 251.0099 15.27544514100119
TIANMU-1 21             
1 58662U 23208C   25289.20219959  .00015446  00000+0  53665-3 0  9992
2 58662  97.4344  42.4838 0008429 105.7521 254.4650 15.29805034100197
TIANMU-1 22             
1 58663U 23208D   25289.20519369  .00010528  00000+0  40962-3 0  9993
2 58663  97.4353  40.5142 0005187 119.6255 240.5500 15.26189479100051
TIANMU-1 15             
1 58700U 24004A   25289.20836058  .00009627  00000+0  40500-3 0  9993
2 58700  97.4664 110.9182 0007512 126.1118 234.0815 15.23576360 98586
TIANMU-1 16             
1 58701U 24004B   25289.18930207  .00010233  00000+0  42961-3 0  9990
2 58701  97.4602 110.3442 0007749 131.1647 229.0260 15.23625220 98585
TIANMU-1 17             
1 58702U 24004C   25289.17066755  .00009492  00000+0  39974-3 0  9993
2 58702  97.4637 110.7169 0006740 122.5374 237.6515 15.23549310 98577
TIANMU-1 18             
1 58703U 24004D   25288.56284433  .00007834  00000+0  32973-3 0  9991
2 58703  97.4655 110.2941 0006445 122.1428 238.0435 15.23629947 98480
INSAT-3DS               
1 58990U 24033A   25289.08239252 -.00000170  00000+0  00000+0 0  9997
2 58990   0.0587  76.3886 0001529 137.9781 282.2434  1.00271437 44620
METEOR-M2 4             
1 59051U 24039A   25289.16398003  .00000105  00000+0  66647-4 0  9992
2 59051  98.6661 247.0034 0007492 148.1766 211.9866 14.22387842 84571
GOES 19                 
1 60133U 24119A   25289.11274580 -.00000262  00000+0  00000+0 0  9993
2 60133   0.0319  60.7512 0001046 215.6759  73.8740  1.00271313  4512
FENGYUN 3H              
1 65815U 25219A   25289.15674603  .00000138  00000+0  85555-4 0  9995
2 65815  98.6481 230.0266 0001595  75.7239 284.4115 14.19880141  2751
